NORAD_CAT_ID,OBJECT_NAME,OBJECT_TYPE,EPOCH,MEAN_MOTION,ECCENTRICITY,INCLINATION,RA_OF_ASC_NODE,ARG_OF_PERICENTER,MEAN_ANOMALY,BSTAR,MEAN_MOTION_DOT,MEAN_MOTION_DDOT,TLE_LINE0,TLE_LINE1,TLE_LINE2,SEMIMAJOR_AXIS,PERIOD,APOGEE,PERIGEE,DECAYED
52460.0,STARLINK-3865,PAYLOAD,2023-06-17 02:04:59,15.08839484,0.000102,53.2155,212.9997,81.2778,278.833,6.2913e-05,7.14e-06,0.0,0 STARLINK-3865,1 52460U 22049K   23168.08679891  .00000714  00000-0  62913-4 0  9999,2 52460  53.2155 212.9997 0001020  81.2778 278.8330 15.08839484 61957,6917.882,95.438,540.453,539.041,0.0
52460.0,STARLINK-3865,PAYLOAD,2023-06-17 10:01:55,15.0883947,0.0001064,53.2147,211.5113,89.8914,270.22,4.1815e-05,3.78e-06,0.0,0 STARLINK-3865,1 52460U 22049K   23168.41799901  .00000378  00000-0  41815-4 0  9995,2 52460  53.2147 211.5113 0001064  89.8914 270.2200 15.08839470 61842,6917.882,95.438,540.483,539.011,0.0
52460.0,STARLINK-3865,PAYLOAD,2023-06-17 19:34:14,15.08834237,0.0001035,53.2156,209.7286,84.7959,275.3151,-3.0311e-05,-7.7e-06,0.0,0 STARLINK-3865,1 52460U 22049K   23168.81544291 -.00000770  00000-0 -30311-4 0  9996,2 52460  53.2156 209.7286 0001035  84.7959 275.3151 15.08834237 61907,6917.898,95.438,540.479,539.047,0.0
52460.0,STARLINK-3865,PAYLOAD,2023-06-18 01:55:47,15.08834517,9.38e-05,53.216,208.5385,87.3105,272.7994,4.6739e-05,4.56e-06,0.0,0 STARLINK-3865,1 52460U 22049K   23169.08040603  .00000456  00000-0  46739-4 0  9994,2 52460  53.2160 208.5385 0000938  87.3105 272.7994 15.08834517 62102,6917.897,95.438,540.411,539.113,0.0
52460.0,STARLINK-3865,PAYLOAD,2023-06-18 09:52:42,15.08834259,9.84e-05,53.2152,207.0517,89.897,270.2135,-6.3448e-05,-1.297e-05,0.0,0 STARLINK-3865,1 52460U 22049K   23169.41160407 -.00001297  00000-0 -63448-4 0  9998,2 52460  53.2152 207.0517 0000984  89.8970 270.2135 15.08834259 61991,6917.898,95.438,540.444,539.082,0.0
52460.0,STARLINK-3865,PAYLOAD,2023-06-18 19:25:01,15.08842484,9.56e-05,53.216,205.2671,85.42,274.6902,1.51e-06,-2.64e-06,0.0,0 STARLINK-3865,1 52460U 22049K   23169.80904322 -.00000264  00000-0  15100-5 0  9998,2 52460  53.2160 205.2671 0000956  85.4200 274.6902 15.08842484 62055,6917.873,95.437,540.399,539.076,0.0
52460.0,STARLINK-3865,PAYLOAD,2023-06-19 03:21:57,15.08838734,8.94e-05,53.2155,203.7797,85.4948,274.6146,0.00013909,1.927e-05,0.0,0 STARLINK-3865,1 52460U 22049K   23170.14024343  .00001927  00000-0  13909-3 0  9992,2 52460  53.2155 203.7797 0000894  85.4948 274.6146 15.08838734 62267,6917.884,95.438,540.368,539.131,0.0
52460.0,STARLINK-3865,PAYLOAD,2023-06-19 06:32:43,15.08840727,9e-05,53.2156,203.185,85.7838,274.3257,0.00015261,2.142e-05,0.0,0 STARLINK-3865,1 52460U 22049K   23170.27272238  .00002142  00000-0  15261-3 0  9997,2 52460  53.2156 203.1850 0000900  85.7838 274.3257 15.08840727 62121,6917.878,95.438,540.366,539.121,0.0
52460.0,STARLINK-3865,PAYLOAD,2023-06-20 01:37:21,15.08833805,9.2e-05,53.2148,199.616,77.9098,282.1997,0.0001056,1.393e-05,0.0,0 STARLINK-3865,1 52460U 22049K   23171.06760930  .00001393  00000-0  10560-3 0  9990,2 52460  53.2148 199.6160 0000920  77.9098 282.1997 15.08833805 62406,6917.899,95.438,540.401,539.128,0.0
52460.0,STARLINK-3865,PAYLOAD,2023-06-20 07:58:54,15.08832758,9.32e-05,53.2149,198.4264,77.538,282.5717,8.7497e-05,1.105e-05,0.0,0 STARLINK-3865,1 52460U 22049K   23171.33257170  .00001105  00000-0  87497-4 0  9992,2 52460  53.2149 198.4264 0000932  77.5380 282.5717 15.08832758 62288,6917.903,95.438,540.412,539.123,0.0
52460.0,STARLINK-3865,PAYLOAD,2023-06-21 07:49:40,15.08844855,0.0001135,53.2161,193.9666,74.2162,285.8955,6.2007e-05,6.99e-06,0.0,0 STARLINK-3865,1 52460U 22049K   23172.32616525  .00000699  00000-0  62007-4 0  9992,2 52460  53.2161 193.9666 0001135  74.2162 285.8955 15.08844855 62591,6917.866,95.437,540.516,538.945,0.0
52460.0,STARLINK-3865,PAYLOAD,2023-06-21 18:57:22,15.08842219,0.0001213,53.2165,191.8858,72.5453,287.5672,7.9896e-05,9.84e-06,0.0,0 STARLINK-3865,1 52460U 22049K   23172.78984611  .00000984  00000-0  79896-4 0  9997,2 52460  53.2165 191.8858 0001213  72.5453 287.5672 15.08842219 62504,6917.874,95.437,540.578,538.899,0.0
52460.0,STARLINK-3865,PAYLOAD,2023-06-22 07:40:27,15.08841403,0.0001067,53.2158,189.5061,73.5533,286.5576,0.00010855,1.44e-05,0.0,0 STARLINK-3865,1 52460U 22049K   23173.31976578  .00001440  00000-0  10855-3 0  9997,2 52460  53.2158 189.5061 0001067  73.5533 286.5576 15.08841403 62745,6917.876,95.437,540.479,539.003,0.0
52460.0,STARLINK-3865,PAYLOAD,2023-06-24 04:11:15,15.0884033,0.0001032,53.2151,181.1794,74.7543,285.3563,4.1532e-05,3.73e-06,0.0,0 STARLINK-3865,1 52460U 22049K   23175.17448695  .00000373  00000-0  41532-4 0  9998,2 52460  53.2151 181.1794 0001032  74.7543 285.3563 15.08840330 63028,6917.879,95.438,540.458,539.03,0.0
52460.0,STARLINK-3865,PAYLOAD,2023-06-25 08:48:12,15.0883821,0.0001021,53.2152,175.8275,74.1368,285.9736,4.4931e-05,4.27e-06,0.0,0 STARLINK-3865,1 52460U 22049K   23176.36680977  .00000427  00000-0  44931-4 0  9997,2 52460  53.2152 175.8275 0001021  74.1368 285.9736 15.08838210 63202,6917.886,95.438,540.457,539.045,0.0
52460.0,STARLINK-3865,PAYLOAD,2023-06-27 08:29:47,15.08836322,0.0001066,53.2152,166.9062,76.8362,283.2749,4.6265e-05,4.49e-06,0.0,0 STARLINK-3865,1 52460U 22049K   23178.35401642  .00000449  00000-0  46265-4 0  9994,2 52460  53.2152 166.9062 0001066  76.8362 283.2749 15.08836322 63509,6917.892,95.438,540.494,539.019,0.0
52460.0,STARLINK-3865,PAYLOAD,2023-06-28 08:20:33,15.08844121,0.0001092,53.2156,162.4454,80.2121,279.8994,9.4879e-05,1.223e-05,0.0,0 STARLINK-3865,1 52460U 22049K   23179.34761043  .00001223  00000-0  94879-4 0  9993,2 52460  53.2156 162.4454 0001092  80.2121 279.8994 15.08844121 63655,6917.868,95.437,540.488,538.977,0.0
52460.0,STARLINK-3865,PAYLOAD,2023-06-29 05:00:34,15.08839953,0.0001083,53.2151,158.5795,79.5507,280.5607,6.7477e-05,7.86e-06,0.0,0 STARLINK-3865,1 52460U 22049K   23180.20873412  .00000786  00000-0  67477-4 0  9991,2 52460  53.2151 158.5795 0001083  79.5507 280.5607 15.08839953 63784,6917.881,95.438,540.495,538.996,0.0
52460.0,STARLINK-3865,PAYLOAD,2023-07-01 01:31:22,15.08833158,0.0001213,53.2156,150.2524,92.9855,267.1275,-1.2875e-05,-4.93e-06,0.0,0 STARLINK-3865,1 52460U 22049K   23182.06345911 -.00000493  00000-0 -12875-4 0  9994,2 52460  53.2156 150.2524 0001213  92.9855 267.1275 15.08833158 64063,6917.901,95.438,540.605,538.927,0.0
52460.0,STARLINK-3865,PAYLOAD,2023-07-02 07:43:42,15.08841089,0.0001108,53.2159,144.6036,92.6592,267.4527,1.8625e-05,9e-08,0.0,0 STARLINK-3865,1 52460U 22049K   23183.32201620  .00000009  00000-0  18625-4 0  9992,2 52460  53.2159 144.6036 0001108  92.6592 267.4527 15.08841089 64255,6917.877,95.437,540.509,538.976,0.0
52460.0,STARLINK-3865,PAYLOAD,2023-07-03 13:56:02,15.08836915,0.0001137,53.2162,138.9538,95.0874,265.0248,6.1503e-05,6.91e-06,0.0,0 STARLINK-3865,1 52460U 22049K   23184.58058051  .00000691  00000-0  61503-4 0  9999,2 52460  53.2162 138.9538 0001137  95.0874 265.0248 15.08836915 64441,6917.89,95.438,540.541,538.968,0.0
52460.0,STARLINK-3865,PAYLOAD,2023-07-05 00:54:31,15.08841404,0.0001227,53.2169,132.4128,96.4764,263.6368,6.1459e-05,6.9e-06,0.0,0 STARLINK-3865,1 52460U 22049K   23186.03786025  .00000690  00000-0  61459-4 0  9999,2 52460  53.2169 132.4128 0001227  96.4764 263.6368 15.08841404 64665,6917.876,95.437,540.59,538.892,0.0
52460.0,STARLINK-3865,PAYLOAD,2023-07-05 23:09:55,15.08833072,0.0001205,53.2165,128.2489,87.0267,273.0863,2.8515e-05,1.66e-06,0.0,0 STARLINK-3865,1 52460U 22049K   23186.96522718  .00000166  00000-0  28515-4 0  9992,2 52460  53.2165 128.2489 0001205  87.0267 273.0863 15.08833072 64807,6917.902,95.438,540.6,538.933,0.0
52460.0,STARLINK-3865,PAYLOAD,2023-07-07 02:11:28,15.08843661,0.0001205,53.2166,123.1926,100.6018,259.511,5.6781e-05,6.16e-06,0.0,0 STARLINK-3865,1 52460U 22049K   23188.09129995  .00000616  00000-0  56781-4 0  9994,2 52460  53.2166 123.1926 0001205 100.6018 259.5110 15.08843661 64971,6917.869,95.437,540.568,538.901,0.0
52460.0,STARLINK-3865,PAYLOAD,2023-07-08 02:02:15,15.08837251,0.000113,53.2171,118.7298,106.0457,254.0659,0.000163,2.307e-05,0.0,0 STARLINK-3865,1 52460U 22049K   23189.08490004  .00002307  00000-0  16300-3 0  9997,2 52460  53.2171 118.7298 0001130 106.0457 254.0659 15.08837251 65127,6917.889,95.438,540.536,538.972,0.0
52460.0,STARLINK-3865,PAYLOAD,2023-07-09 01:53:03,15.08837006,0.0001088,53.217,114.2708,97.9122,262.1994,-1.5722e-05,-5.38e-06,0.0,0 STARLINK-3865,1 52460U 22049K   23190.07850861 -.00000538  00000-0 -15722-4 0  9993,2 52460  53.2170 114.2708 0001088  97.9122 262.1994 15.08837006 65278,6917.89,95.438,540.507,539.002,0.0
52460.0,STARLINK-3865,PAYLOAD,2023-07-10 11:16:09,15.08840941,0.0001016,53.2172,108.0296,102.6192,257.4914,1.0274e-05,-1.24e-06,0.0,0 STARLINK-3865,1 52460U 22049K   23191.46954904 -.00000124  00000-0  10274-4 0  9997,2 52460  53.2172 108.0296 0001016 102.6192 257.4914 15.08840941 65489,6917.878,95.437,540.445,539.04,0.0
52460.0,STARLINK-3865,PAYLOAD,2023-07-11 14:17:43,15.0883249,9.85e-05,53.2172,102.9746,92.5467,267.5638,7.8779e-05,9.66e-06,0.0,0 STARLINK-3865,1 52460U 22049K   23192.59563674  .00000966  00000-0  78779-4 0  9999,2 52460  53.2172 102.9746 0000985  92.5467 267.5638 15.08832490 65652,6917.903,95.438,540.45,539.087,0.0
52460.0,STARLINK-3865,PAYLOAD,2023-07-12 03:00:47,15.08843558,0.0001161,53.2171,100.5956,98.4641,261.6483,7.6423e-05,9.29e-06,0.0,0 STARLINK-3865,1 52460U 22049K   23193.12555053  .00000929  00000-0  76423-4 0  9994,2 52460  53.2171 100.5956 0001161  98.4641 261.6483 15.08843558 65733,6917.87,95.437,540.538,538.931,0.0
52460.0,STARLINK-3865,PAYLOAD,2023-07-12 23:40:48,15.08835564,8.72e-05,53.217,96.7272,78.6272,281.4818,0.00010206,1.337e-05,0.0,0 STARLINK-3865,1 52460U 22049K   23193.98667449  .00001337  00000-0  10206-3 0  9991,2 52460  53.2170  96.7272 0000872  78.6272 281.4818 15.08835564 65861,6917.894,95.438,540.362,539.156,0.0
